{
    "links": {
        "self": "http://www.neowsapp.com/rest/v1/neo/3552771?api_key=iIulBulltgU6a56xZRHN4H3l9WmuAYTsLGpBGhQ2"
    },
    "id": "3552771",
    "neo_reference_id": "3552771",
    "name": "(2010 XV)",
    "designation": "2010 XV",
    "nasa_jpl_url": "http://ssd.jpl.nasa.gov/sbdb.cgi?sstr=3552771",
    "absolute_magnitude_h": 23.6,
    "estimated_diameter": {
        "kilometers": {
            "estimated_diameter_min": 0.0506471459,
            "estimated_diameter_max": 0.1132504611
        },
        "meters": {
            "estimated_diameter_min": 50.6471458835,
            "estimated_diameter_max": 113.2504610618
        },
        "miles": {
            "estimated_diameter_min": 0.0314706677,
            "estimated_diameter_max": 0.0703705522
        },
        "feet": {
            "estimated_diameter_min": 166.1651821003,
            "estimated_diameter_max": 371.5566426699
        }
    },
    "is_potentially_hazardous_asteroid": false,
    "close_approach_data": [
        {
            "close_approach_date": "2010-12-01",
            "close_approach_date_full": "2010-Dec-01 01:28",
            "epoch_date_close_approach": 1291166880000,
            "relative_velocity": {
                "kilometers_per_second": "12.9608869517",
                "kilometers_per_hour": "46659.1930262914",
                "miles_per_hour": "28992.2080223642"
            },
            "miss_distance": {
                "astronomical": "0.1101483544",
                "lunar": "42.8477098616",
                "kilometers": "16477959.202245128",
                "miles": "10238929.0628256464"
            },
            "orbiting_body": "Earth"
        },
        {
            "close_approach_date": "2011-04-20",
            "close_approach_date_full": "2011-Apr-20 04:54",
            "epoch_date_close_approach": 1303275240000,
            "relative_velocity": {
                "kilometers_per_second": "13.267993538",
                "kilometers_per_hour": "47764.776736863",
                "miles_per_hour": "29679.1747451913"
            },
            "miss_distance": {
                "astronomical": "0.4294753321",
                "lunar": "167.0659041869",
                "kilometers": "64248594.899702627",
                "miles": "39922225.6524731726"
            },
            "orbiting_body": "Earth"
        }
    ],
    "orbital_data": {
        "orbit_id": "9",
        "orbit_determination_date": "2017-04-06 08:55:26",
        "first_observation_date": "2010-12-02",
        "last_observation_date": "2010-12-09",
        "data_arc_in_days": 7,
        "observations_used": 36,
        "orbit_uncertainty": "8",
        "minimum_orbit_intersection": ".105488",
        "jupiter_tisserand_invariant": "4.990",
        "epoch_osculation": "2455533.5",
        "eccentricity": ".1794079286718816",
        "semi_major_axis": "1.267261160612812",
        "inclination": "24.38654611620803",
        "ascending_node_longitude": "65.142715974617",
        "orbital_period": "521.0718525297654",
        "perihelion_distance": "1.039904460700943",
        "perihelion_argument": "48.51119372601732",
        "aphelion_distance": "1.494617860524681",
        "perihelion_time": "2455579.121236371372",
        "mean_anomaly": "328.4810357459181",
        "mean_motion": ".6908836051155451",
        "equinox": "J2000",
        "orbit_class": {
            "orbit_class_type": "AMO",
            "orbit_class_description": "Near-Earth asteroid orbits similar to that of 1221 Amor",
            "orbit_class_range": "1.017 AU < q (perihelion) < 1.3 AU"
        }
    },
    "is_sentry_object": false
}